{ "students" :
  [
    { "first" : "John",
      "last"  : "Doe",
      "address" : { "city" : "Chicago", "state" : "IL", "zip" : "80134" },
      "major" : "Computer Science",
      "gpa"   : "3.5"
    },
    { "first" : "Susan",
      "last"  : "Smith",
      "address" : { "city" : "Idaho Falls", "state" : "ID", "zip" : "83234" },
      "major" : "Computer Engineering",
      "gpa"   : "3.2"
    },
    { "first" : "Steve",
      "last"  : "Anderson",
      "address" : { "city" : "Rexburg", "state" : "ID", "zip" : "83460" },
      "major" : "Electrical Engineering",
      "gpa"   : "3.0"
    },
       { "first" : "Samantha",
      "last"  : "Neville",
      "address" : { "city" : "Cameron", "state" : "MO", "zip" : "83442" },
      "major" : "Software Engineering",
      "gpa"   : "3.75"
    },
    { "first" : "Jared",
      "last"  : "Neville",
      "address" : { "city" : "Rigby", "state" : "ID", "zip" : "83442" },
      "major" : "Human Biology",
      "gpa"   : "3.9"
    },
    { "first" : "Kate",
      "last"  : "Anderson",
      "address" : { "city" : "Ririe", "state" : "ID", "zip" : "83460" },
      "major" : "Elementary Eduction",
      "gpa"   : "3.4"
    }, 
     { "first" : "John",
      "last"  : "Doe",
      "address" : { "city" : "Chicago", "state" : "IL", "zip" : "80134" },
      "major" : "Computer Science",
      "gpa"   : "3.5"
    },
    { "first" : "Susan",
      "last"  : "Smith",
      "address" : { "city" : "Idaho Falls", "state" : "ID", "zip" : "83234" },
      "major" : "Computer Engineering",
      "gpa"   : "3.2"
    },
    { "first" : "Steve",
      "last"  : "Anderson",
      "address" : { "city" : "Rexburg", "state" : "ID", "zip" : "83460" },
      "major" : "Electrical Engineering",
      "gpa"   : "3.0"
    },
       { "first" : "Samantha",
      "last"  : "Neville",
      "address" : { "city" : "Cameron", "state" : "MO", "zip" : "83442" },
      "major" : "Software Engineering",
      "gpa"   : "3.75"
    },
    { "first" : "Jared",
      "last"  : "Neville",
      "address" : { "city" : "Rigby", "state" : "ID", "zip" : "83442" },
      "major" : "Human Biology",
      "gpa"   : "3.9"
    },
    { "first" : "Kate",
      "last"  : "Anderson",
      "address" : { "city" : "Ririe", "state" : "ID", "zip" : "83460" },
      "major" : "Elementary Eduction",
      "gpa"   : "3.4"
    }   
  ]
}